GPS BIIR-2  (PRN 13)    
1 24876U 97035A   21198.31589533  .00000085  00000-0  00000-0 0  9992
2 24876  55.4775 168.7472 0049465  53.2224 307.2145  2.00562439175931
GPS BIIR-4  (PRN 20)    
1 26360U 00025A   21197.27084605 -.00000032  00000-0  00000-0 0  9992
2 26360  53.7921  92.7868 0060588 176.4677 235.1234  2.00787105155226
GPS BIIR-8  (PRN 16)    
1 27663U 03005A   21198.23878166 -.00000026  00000-0  00000-0 0  9993
2 27663  55.7501 286.3595 0120247  38.1536 333.6507  2.00557471135297
GPS BIIR-9  (PRN 21)    
1 27704U 03010A   21198.24060550 -.00000059  00000-0  00000-0 0  9992
2 27704  54.8735  36.9055 0242149 296.1244 290.7880  2.00564722134080
GPS BIIR-10 (PRN 22)    
1 28129U 03058A   21195.51191372 -.00000019  00000-0  00000-0 0  9996
2 28129  53.6028  95.5152 0070994 306.0382  53.3523  2.00549897128710
GPS BIIR-11 (PRN 19)    
1 28190U 04009A   21198.49815243 -.00000067  00000-0  00000-0 0  9994
2 28190  56.1730 347.2377 0090613 108.7680 248.1590  2.00567671126929
GPS BIIR-13 (PRN 02)    
1 28474U 04045A   21198.37684854 -.00000058  00000-0  00000-0 0  9998
2 28474  55.2071  36.9143 0203927 273.7024 269.7300  2.00558786122419
GPS BIIRM-1 (PRN 17)    
1 28874U 05038A   21198.46743278 -.00000068  00000-0  00000-0 0  9992
2 28874  56.2545 344.6553 0136044 270.3283  88.0747  2.00569128115814
GPS BIIRM-2 (PRN 31)    
1 29486U 06042A   21196.10153097  .00000078  00000-0  00000-0 0  9991
2 29486  54.7667 222.7024 0099857  14.1490 348.0937  2.00575577108485
GPS BIIRM-3 (PRN 12)    
1 29601U 06052A   21198.03677034 -.00000023  00000-0  00000-0 0  9998
2 29601  55.7471 285.2946 0080916  69.7873 291.1350  2.00559660107382
GPS BIIRM-4 (PRN 15)    
1 32260U 07047A   21196.34672374  .00000062  00000-0  00000-0 0  9994
2 32260  53.2405 154.5142 0131637  56.7189 304.5097  2.00566270100752
GPS BIIRM-5 (PRN 29)    
1 32384U 07062A   21197.66398242 -.00000063  00000-0  00000-0 0  9995
2 32384  56.3633 345.4063 0017945 132.6364 226.2908  2.00571641 99478
GPS BIIRM-6 (PRN 07)    
1 32711U 08012A   21198.25539365  .00000094  00000-0  00000-0 0  9997
2 32711  54.5200 221.6278 0153404 227.7775 130.9639  2.00554434 97738
GPS BIIRM-8 (PRN 05)    
1 35752U 09043A   21194.50498535 -.00000012  00000-0  00000-0 0  9998
2 35752  54.8237  99.2048 0059925  51.8127 129.6725  2.00536169 87244
GPS BIIF-1  (PRN 25)    
1 36585U 10022A   21196.58101067 -.00000013  00000-0  00000-0 0  9994
2 36585  55.0239 281.1064 0096743  54.9510 307.7496  2.00572024 81544
GPS BIIF-2  (PRN 01)    
1 37753U 11036A   21197.70821105 -.00000054  00000-0  00000-0 0  9990
2 37753  56.4334  41.8026 0108705  49.1637 131.3838  2.00563342 73242
GPS BIIF-3  (PRN 24)    
1 38833U 12053A   21196.94136845  .00000087  00000-0  00000-0 0  9990
2 38833  53.5737 217.1475 0110781  41.7112 319.1746  2.00557366 63394
GPS BIIF-4  (PRN 27)    
1 39166U 13023A   21194.81173765 -.00000060  00000-0  00000-0 0  9996
2 39166  55.8985 341.3021 0093210  35.3186 325.2988  2.00562419 59787
GPS BIIF-5  (PRN 30)    
1 39533U 14008A   21196.30820755  .00000077  00000-0  00000-0 0  9999
2 39533  53.6724 222.6468 0054363 204.9246 154.8658  2.00562629 53625
GPS BIIF-6  (PRN 06)    
1 39741U 14026A   21196.58955468 -.00000054  00000-0  00000-0 0  9996
2 39741  56.3996  41.3737 0023591 302.1251  57.7039  2.00579914 52480
GPS BIIF-7  (PRN 09)    
1 40105U 14045A   21198.16906530  .00000070  00000-0  00000-0 0  9992
2 40105  54.6335 160.1913 0017102 106.1955 253.9732  2.00554644 50058
GPS BIIF-8  (PRN 03)    
1 40294U 14068A   21193.05231302 -.00000014  00000-0  00000-0 0  9996
2 40294  55.5699 101.4095 0035342  48.5224 311.8117  2.00576638 49060
GPS BIIF-9  (PRN 26)    
1 40534U 15013A   21198.17994391 -.00000014  00000-0  00000-0 0  9996
2 40534  53.9292 278.5779 0058485  14.9848 345.2494  2.00572728 45808
GPS BIIF-10 (PRN 08)    
1 40730U 15033A   21198.33819832 -.00000069  00000-0  00000-0 0  9990
2 40730  55.4034 340.1503 0063579   1.5091 358.5160  2.00569360 43971
GPS BIIF-11 (PRN 10)    
1 41019U 15062A   21196.89169292 -.00000017  00000-0  00000-0 0  9993
2 41019  55.5648 101.0932 0068569 214.2074 145.3873  2.00563436 41780
GPS BIIF-12 (PRN 32)    
1 41328U 16007A   21197.48085874  .00000074  00000-0  00000-0 0  9997
2 41328  54.8608 160.8059 0052162 226.6386 132.9067  2.00560856 39809
GPS BIII-1  (PRN 04)    
1 43873U 18109A   21198.29168163  .00000075  00000-0  00000-0 0  9993
2 43873  55.0409 163.1223 0013552 200.2660 277.5821  2.00557796 19058
GPS BIII-2  (PRN 18)    
1 44506U 19056A   21198.28993469 -.00000057  00000-0  00000-0 0  9994
2 44506  55.5004  42.4094 0016356 173.2690 202.9263  2.00565947 14054
GPS BIII-3  (PRN 23)    
1 45854U 20041A   21197.84842756 -.00000027  00000-0  00000-0 0  9997
2 45854  55.2805  99.6920 0012391 158.8931 201.1956  2.00565552  8001
GPS BIII-4  (PRN 14)    
1 46826U 20078A   21197.89113023 -.00000021  00000-0  00000-0 0  9994
2 46826  54.7999 283.6994 0008591 179.4868 180.5727  2.00554295  5487
